GLOBALSTAR M035         
1 25851U 99037A   25016.36603696 -.00000109  00000+0 -17281-2 0  9994
2 25851  51.9974  33.5404 0013790  96.9389   5.7593 11.04535541 79487
GLOBALSTAR M032         
1 25852U 99037B   25016.57113949 -.00000049  00000+0  56041-3 0  9995
2 25852  51.9915 228.7415 0009919 275.3254  84.6414 11.19055617117810
GLOBALSTAR M051         
1 25853U 99037C   25016.39515977 -.00000058  00000+0  33714-3 0  9995
2 25853  51.9811  47.0715 0000703 282.1726  77.9006 11.42200226115042
GLOBALSTAR M030         
1 25854U 99037D   25016.56159246 -.00000070  00000+0  10316-3 0  9995
2 25854  51.9841 222.4177 0004512 125.0132 235.1109 11.55103624132527
GLOBALSTAR M048         
1 25872U 99041A   25016.24080734 -.00000056  00000+0  37577-3 0  9992
2 25872  51.9401 336.6043 0013116 283.4410 218.2191 11.33853345107744
GLOBALSTAR M026         
1 25873U 99041B   25016.32378059 -.00000131  00000+0 -24633-2 0  9995
2 25873  51.9985 153.1901 0001573  44.3224 326.2856 11.06825324131671
GLOBALSTAR M043         
1 25874U 99041C   25016.62858995 -.00000023  00000+0  13594-2 0  9994
2 25874  51.9410  77.2877 0013265  56.9087 113.3294 11.25690334105809
GLOBALSTAR M028         
1 25875U 99041D   25016.13702525 -.00000047  00000+0  34546-3 0  9995
2 25875  51.9627 286.4520 0063873 100.7690 260.0369 12.50574640171151
